[{"OBJECT_NAME":"ISS (ZARYA)","OBJECT_ID":"1998-067A","EPOCH":"2026-03-02T22:19:59.515680","MEAN_MOTION":15.48408287,"ECCENTRICITY":0.0008215,"INCLINATION":51.6319,"RA_OF_ASC_NODE":105.7724,"ARG_OF_PERICENTER":150.8374,"MEAN_ANOMALY":209.3074,"EPHEMERIS_TYPE":0,"CLASSIFICATION_TYPE":"U","NORAD_CAT_ID":25544,"ELEMENT_SET_NO":999,"REV_AT_EPOCH":55528,"BSTAR":0.00018075,"MEAN_MOTION_DOT":9.325e-5,"MEAN_MOTION_DDOT":0},{"OBJECT_NAME":"POISK","OBJECT_ID":"2009-060A","EPOCH":"2026-03-02T22:19:59.515680","MEAN_MOTION":15.48408287,"ECCENTRICITY":0.0008215,"INCLINATION":51.6319,"RA_OF_ASC_NODE":105.7724,"ARG_OF_PERICENTER":150.8374,"MEAN_ANOMALY":209.3074,"EPHEMERIS_TYPE":0,"CLASSIFICATION_TYPE":"U","NORAD_CAT_ID":36086,"ELEMENT_SET_NO":999,"REV_AT_EPOCH":55497,"BSTAR":0.00018075,"MEAN_MOTION_DOT":9.325e-5,"MEAN_MOTION_DDOT":0},{"OBJECT_NAME":"CSS (TIANHE)","OBJECT_ID":"2021-035A","EPOCH":"2026-03-02T19:17:14.095104","MEAN_MOTION":15.60315912,"ECCENTRICITY":0.00066169,"INCLINATION":41.4651,"RA_OF_ASC_NODE":250.0496,"ARG_OF_PERICENTER":230.1207,"MEAN_ANOMALY":129.905,"EPHEMERIS_TYPE":0,"CLASSIFICATION_TYPE":"U","NORAD_CAT_ID":48274,"ELEMENT_SET_NO":999,"REV_AT_EPOCH":27653,"BSTAR":0.00021016754,"MEAN_MOTION_DOT":0.00017409,"MEAN_MOTION_DDOT":0},{"OBJECT_NAME":"ISS (NAUKA)","OBJECT_ID":"2021-066A","EPOCH":"2026-03-02T22:19:59.515680","MEAN_MOTION":15.48408287,"ECCENTRICITY":0.0008215,"INCLINATION":51.6319,"RA_OF_ASC_NODE":105.7724,"ARG_OF_PERICENTER":150.8374,"MEAN_ANOMALY":209.3074,"EPHEMERIS_TYPE":0,"CLASSIFICATION_TYPE":"U","NORAD_CAT_ID":49044,"ELEMENT_SET_NO":999,"REV_AT_EPOCH":55498,"BSTAR":0.00018075,"MEAN_MOTION_DOT":9.325e-5,"MEAN_MOTION_DDOT":0},{"OBJECT_NAME":"FREGAT DEB","OBJECT_ID":"2011-037PF","EPOCH":"2026-03-03T01:45:48.368736","MEAN_MOTION":12.39774562,"ECCENTRICITY":0.095518,"INCLINATION":51.6509,"RA_OF_ASC_NODE":320.5956,"ARG_OF_PERICENTER":44.2014,"MEAN_ANOMALY":323.1255,"EPHEMERIS_TYPE":0,"CLASSIFICATION_TYPE":"U","NORAD_CAT_ID":49271,"ELEMENT_SET_NO":999,"REV_AT_EPOCH":21187,"BSTAR":0.049339,"MEAN_MOTION_DOT":0.00033502,"MEAN_MOTION_DDOT":0},{"OBJECT_NAME":"CSS (WENTIAN)","OBJECT_ID":"2022-085A","EPOCH":"2026-03-02T19:17:14.095104","MEAN_MOTION":15.60315912,"ECCENTRICITY":0.00066169,"INCLINATION":41.4651,"RA_OF_ASC_NODE":250.0496,"ARG_OF_PERICENTER":230.1207,"MEAN_ANOMALY":129.905,"EPHEMERIS_TYPE":0,"CLASSIFICATION_TYPE":"U","NORAD_CAT_ID":53239,"ELEMENT_SET_NO":999,"REV_AT_EPOCH":27561,"BSTAR":0.00021016754,"MEAN_MOTION_DOT":0.00017409,"MEAN_MOTION_DDOT":0},{"OBJECT_NAME":"CSS (MENGTIAN)","OBJECT_ID":"2022-143A","EPOCH":"2026-03-02T19:17:14.095104","MEAN_MOTION":15.60315912,"ECCENTRICITY":0.00066169,"INCLINATION":41.4651,"RA_OF_ASC_NODE":250.0496,"ARG_OF_PERICENTER":230.1207,"MEAN_ANOMALY":129.905,"EPHEMERIS_TYPE":0,"CLASSIFICATION_TYPE":"U","NORAD_CAT_ID":54216,"ELEMENT_SET_NO":999,"REV_AT_EPOCH":27558,"BSTAR":0.00021016754,"MEAN_MOTION_DOT":0.00017409,"MEAN_MOTION_DDOT":0},{"OBJECT_NAME":"PROGRESS-MS 31","OBJECT_ID":"2025-146A","EPOCH":"2026-03-02T22:19:59.515680","MEAN_MOTION":15.48408287,"ECCENTRICITY":0.0008215,"INCLINATION":51.6319,"RA_OF_ASC_NODE":105.7724,"ARG_OF_PERICENTER":150.8374,"MEAN_ANOMALY":209.3074,"EPHEMERIS_TYPE":0,"CLASSIFICATION_TYPE":"U","NORAD_CAT_ID":64751,"ELEMENT_SET_NO":999,"REV_AT_EPOCH":55499,"BSTAR":0.00018075,"MEAN_MOTION_DOT":9.325e-5,"MEAN_MOTION_DDOT":0},{"OBJECT_NAME":"TIANZHOU-9","OBJECT_ID":"2025-149A","EPOCH":"2026-03-02T19:17:14.095104","MEAN_MOTION":15.60315912,"ECCENTRICITY":0.00066169,"INCLINATION":41.4651,"RA_OF_ASC_NODE":250.0496,"ARG_OF_PERICENTER":230.1207,"MEAN_ANOMALY":129.905,"EPHEMERIS_TYPE":0,"CLASSIFICATION_TYPE":"U","NORAD_CAT_ID":64786,"ELEMENT_SET_NO":999,"REV_AT_EPOCH":27559,"BSTAR":0.00021016754,"MEAN_MOTION_DOT":0.00017409,"MEAN_MOTION_DDOT":0},{"OBJECT_NAME":"PROGRESS-MS 32","OBJECT_ID":"2025-204A","EPOCH":"2026-03-02T22:19:59.515680","MEAN_MOTION":15.48408287,"ECCENTRICITY":0.0008215,"INCLINATION":51.6319,"RA_OF_ASC_NODE":105.7724,"ARG_OF_PERICENTER":150.8374,"MEAN_ANOMALY":209.3074,"EPHEMERIS_TYPE":0,"CLASSIFICATION_TYPE":"U","NORAD_CAT_ID":65586,"ELEMENT_SET_NO":999,"REV_AT_EPOCH":55503,"BSTAR":0.00018075,"MEAN_MOTION_DOT":9.325e-5,"MEAN_MOTION_DDOT":0},{"OBJECT_NAME":"CYGNUS NG-23","OBJECT_ID":"2025-208A","EPOCH":"2026-03-02T22:19:59.515680","MEAN_MOTION":15.48408287,"ECCENTRICITY":0.0008215,"INCLINATION":51.6319,"RA_OF_ASC_NODE":105.7724,"ARG_OF_PERICENTER":150.8374,"MEAN_ANOMALY":209.3074,"EPHEMERIS_TYPE":0,"CLASSIFICATION_TYPE":"U","NORAD_CAT_ID":65616,"ELEMENT_SET_NO":999,"REV_AT_EPOCH":55504,"BSTAR":0.00018075,"MEAN_MOTION_DOT":9.325e-5,"MEAN_MOTION_DDOT":0},{"OBJECT_NAME":"ISS OBJECT XK","OBJECT_ID":"1998-067XK","EPOCH":"2026-03-03T01:26:20.103360","MEAN_MOTION":16.04528256,"ECCENTRICITY":0.0005997,"INCLINATION":51.6162,"RA_OF_ASC_NODE":81.7296,"ARG_OF_PERICENTER":52.8791,"MEAN_ANOMALY":307.2768,"EPHEMERIS_TYPE":0,"CLASSIFICATION_TYPE":"U","NORAD_CAT_ID":65731,"ELEMENT_SET_NO":999,"REV_AT_EPOCH":2583,"BSTAR":0.0013204,"MEAN_MOTION_DOT":0.00902575,"MEAN_MOTION_DDOT":0.00042896},{"OBJECT_NAME":"YOTSUBA-KULOVER","OBJECT_ID":"1998-067XN","EPOCH":"2026-03-03T02:58:13.123200","MEAN_MOTION":15.77593623,"ECCENTRICITY":0.0006055,"INCLINATION":51.6215,"RA_OF_ASC_NODE":91.2752,"ARG_OF_PERICENTER":28.2393,"MEAN_ANOMALY":331.8934,"EPHEMERIS_TYPE":0,"CLASSIFICATION_TYPE":"U","NORAD_CAT_ID":65941,"ELEMENT_SET_NO":999,"REV_AT_EPOCH":2246,"BSTAR":0.0010993,"MEAN_MOTION_DOT":0.00191043,"MEAN_MOTION_DDOT":0},{"OBJECT_NAME":"BOTAN","OBJECT_ID":"1998-067XP","EPOCH":"2026-03-03T04:21:07.440768","MEAN_MOTION":16.24781476,"ECCENTRICITY":0.0003369,"INCLINATION":51.6045,"RA_OF_ASC_NODE":83.2412,"ARG_OF_PERICENTER":47.8026,"MEAN_ANOMALY":312.3279,"EPHEMERIS_TYPE":0,"CLASSIFICATION_TYPE":"U","NORAD_CAT_ID":65942,"ELEMENT_SET_NO":999,"REV_AT_EPOCH":2257,"BSTAR":0.0014562,"MEAN_MOTION_DOT":0.04280876,"MEAN_MOTION_DDOT":1.2003e-5},{"OBJECT_NAME":"E-KAGAKU-1","OBJECT_ID":"1998-067XQ","EPOCH":"2026-03-03T03:02:49.680960","MEAN_MOTION":15.77340403,"ECCENTRICITY":0.0006275,"INCLINATION":51.6235,"RA_OF_ASC_NODE":91.3116,"ARG_OF_PERICENTER":36.2244,"MEAN_ANOMALY":323.918,"EPHEMERIS_TYPE":0,"CLASSIFICATION_TYPE":"U","NORAD_CAT_ID":65943,"ELEMENT_SET_NO":999,"REV_AT_EPOCH":2246,"BSTAR":0.0010758,"MEAN_MOTION_DOT":0.00184729,"MEAN_MOTION_DDOT":0},{"OBJECT_NAME":"HRC MONOBLOCK CAMERA","OBJECT_ID":"1998-067XR","EPOCH":"2026-03-02T09:44:13.048512","MEAN_MOTION":15.61308322,"ECCENTRICITY":0.0003324,"INCLINATION":51.6272,"RA_OF_ASC_NODE":102.271,"ARG_OF_PERICENTER":60.8077,"MEAN_ANOMALY":299.3249,"EPHEMERIS_TYPE":0,"CLASSIFICATION_TYPE":"U","NORAD_CAT_ID":66052,"ELEMENT_SET_NO":999,"REV_AT_EPOCH":2125,"BSTAR":0.00062048736,"MEAN_MOTION_DOT":0.00053624,"MEAN_MOTION_DDOT":0}]
